STARLINK-1446           
1 45663C 20035G   26090.25604167  .00044760  00000+0  97065-3 0   904
2 45663  53.0226 256.8615 0001674   2.7969  54.3016 15.43794814    14
STARLINK-1448           
1 45665C 20035J   26090.17618056  .00104020  00000+0  14217-2 0   902
2 45665  53.0488 308.9301 0006920 168.3621 122.6424 15.56740465    19
STARLINK-1451           
1 45668C 20035M   26090.25395833  .00006216  00000+0  36531-3 0   901
2 45668  53.0524 328.6195 0001932  97.2527 289.0195 15.11184022    11
STARLINK-1452           
1 45669C 20035N   26090.15812500 -.00000208  00000+0 -38692-5 0   905
2 45669  53.0293 279.1765 0004877 136.6053   6.2617 15.48274446    19
STARLINK-1453           
1 45670C 20035P   26090.29562500  .00182170  00000+0  24506-2 0   907
2 45670  53.0442 268.8924 0002519 140.6770 171.4154 15.57152539    10
STARLINK-1454           
1 45671C 20035Q   26090.25118056  .00097725  00000+0  14035-2 0   904
2 45671  53.0480 308.8978 0006805 150.7195 258.6509 15.55408732    11
STARLINK-1456           
1 45673C 20035S   26090.21923611  .00074729  00000+0  11501-2 0   907
2 45673  53.0476 302.7616 0002724 216.8746 270.8064 15.53555129    15
STARLINK-1457           
1 45674C 20035T   26090.28590278  .00212140  00000+0  86365-3 0   906
2 45674  53.0426 273.7756 0004221 169.0091 244.5970 15.85337967    16
STARLINK-1458           
1 45675C 20035U   26090.25326389  .00063334  00000+0  12777-2 0   908
2 45675  53.0512 312.9100 0006090 161.0603 338.5860 15.45885458    10
STARLINK-1460           
1 45676C 20035V   26090.20951389 -.00004768  00000+0 -16078-3 0   905
2 45676  53.1584 324.9925 0001365  77.4906 234.6006 15.30174033    17
STARLINK-1392           
1 45677C 20035W   26090.28659722 -.00030196  00000+0 -10449-2 0   909
2 45677  53.1544 324.5678 0001314  82.8119 269.7410 15.29350481    14
STARLINK-1394           
1 45679C 20035Y   26090.20395833  .00080712  00000+0  12396-2 0   903
2 45679  53.0461 293.0599 0003979 227.2707 191.0651 15.53603547    17
STARLINK-1402           
1 45685C 20035AE  26090.23659722  .00082129  00000+0  15310-2 0   906
2 45685  53.0453 280.5352 0003038 281.8792  63.6134 15.48172799    13
STARLINK-1404           
1 45686C 20035AF  26090.36298611  .00013862  00000+0  37431-3 0   904
2 45686  53.1601 308.7324 0001336 106.1555 310.1418 15.37188966    13
STARLINK-1413           
1 45689C 20035AJ  26090.33381944 -.00006332  00000+0 -21356-3 0   901
2 45689  53.1596 309.0450 0001270  80.3942 348.3543 15.30171773    16
STARLINK-1417           
1 45693C 20035AN  26090.26993056 -.00024863  00000+0 -13692-2 0   903
2 45693  53.0510 316.4136 0001764 307.1298  92.3522 15.13531230    13
STARLINK-1420           
1 45695C 20035AQ  26090.17687500  .00097765  00000+0  12825-2 0   905
2 45695  53.0494 278.4259 0004127 216.6793  20.4753 15.57859006    19
STARLINK-1422           
1 45696C 20035AR  26090.32548611 -.00012870  00000+0 -43405-3 0   907
2 45696  53.1594 309.0866 0001285  94.7670 247.4300 15.30176755    11
STARLINK-1351           
1 45697C 20035AS  26090.26298611  .00132750  00000+0  18397-2 0   902
2 45697  53.0491 277.4267 0004268 232.8784 151.3382 15.56374099    17
STARLINK-1400           
1 45700C 20035AV  26090.33173611  .00152460  00000+0  22745-2 0   909
2 45700  53.0480 278.7336 0006582 182.5654 246.4512 15.54348271    11
STARLINK-1403           
1 45701C 20035AW  26090.35673611 -.00016839  00000+0 -58296-3 0   909
2 45701  53.1559 295.9966 0001214  91.8474 244.2198 15.29331051    15
STARLINK-1407           
1 45703C 20035AY  26090.25604167  .00102150  00000+0  10278-2 0   907
2 45703  53.0310 210.2939 0004747 194.8935 168.4170 15.64713572    19
STARLINK-1411           
1 45706C 20035BB  26090.32756944  .00178800  00000+0  16468-2 0   901
2 45706  53.0402 235.3280 0003249 269.1797 318.9883 15.66888871    19
STARLINK-1423           
1 45710C 20035BF  26090.25743056  .00132660  00000+0  18098-2 0   903
2 45710  53.0476 277.7612 0006828 203.8531 179.9288 15.56776434    15
STARLINK-1433           
1 45711C 20035BG  26090.17895833  .00092201  00000+0  11577-2 0   907
2 45711  53.0472 276.8675 0006399 197.8466 124.8475 15.59006791    15
STARLINK-1434           
1 45712C 20035BH  26090.27340278  .00066060  00000+0  23310-2 0   909
2 45712  53.0503 279.9130 0003872 170.3440 109.1928 15.28659822    16
STARLINK-1465           
1 45731C 20038B   26090.29215278  .00064996  00000+0  10127-2 0   904
2 45731  53.0492 119.2401 0006161  10.2763  23.4361 15.53203310    19
STARLINK-1471           
1 45735C 20038F   26090.25673611  .00068470  00000+0  11932-2 0   909
2 45735  53.0471  38.6068 0001810  31.6888 342.9401 15.50097964    11
STARLINK-1480           
1 45741C 20038M   26090.32895833  .00086030  00000+0  12444-2 0   907
2 45741  53.0518 113.2710 0002313  67.0015 356.7781 15.55246630    13
STARLINK-1500           
1 45744C 20038Q   26090.32131944  .00029264  00000+0  82173-3 0   909
2 45744  53.0344  91.1893 0003235  10.4378 170.4775 15.35959728    18
STARLINK-1504           
1 45746C 20038S   26090.23173611  .00061445  00000+0  90846-3 0   901
2 45746  53.0229  38.1443 0001253  60.9375 291.7847 15.54664174    15
STARLINK-1506           
1 45747C 20038T   26090.28312500 -.00018751  00000+0 -70425-3 0   904
2 45747  53.0731 102.4450 0003327 348.0258 101.6396 15.26656837    15
STARLINK-1464           
1 45751C 20038X   26090.31229167  .00077485  00000+0  15451-2 0   903
2 45751  53.0492 101.6382 0004139  16.3804  44.7164 15.46228454    15
STARLINK-1477           
1 45754C 20038AA  26090.21576389 -.00022363  00000+0 -11685-2 0   908
2 45754  53.0484 115.0307 0003077  43.2937  12.5947 15.15391002    19
STARLINK-1478           
1 45755C 20038AB  26090.25048611  .00104860  00000+0  13224-2 0   907
2 45755  53.0481  93.3351 0004393  12.0682 268.0410 15.58899775    17
STARLINK-1493           
1 45759C 20038AF  26090.22687500  .00080534  00000+0  12299-2 0   906
2 45759  53.0505 100.8456 0004957  68.4546 355.0552 15.53754665    15
STARLINK-1494           
1 45760C 20038AG  26090.31090278  .00192820  00000+0  10735-2 0   903
2 45760  53.0478  43.7598 0006368  84.0202 270.6547 15.78632301    14
STARLINK-1502           
1 45764C 20038AL  26090.25673611  .00068914  00000+0  11880-2 0   906
2 45764  53.0492 102.7463 0006151  60.4645  36.3311 15.50381658    12
STARLINK-1470           
1 45772C 20038AU  26090.27340278  .00074280  00000+0  25341-2 0   907
2 45772  53.0439  74.0001 0003435  70.1046  79.0822 15.29753164    18
STARLINK-1482           
1 45773C 20038AV  26090.23034722  .00041616  00000+0  13376-2 0   900
2 45773  53.1576  90.8679 0002565  79.1532 305.8919 15.31693260    11
STARLINK-1496           
1 45780C 20038BC  26090.32687500  .00163150  00000+0  26780-2 0   907
2 45780  53.0492  74.0033 0001440 350.4730 119.2916 15.51730518    13
STARLINK-1513           
1 45786C 20038BJ  26090.33312500 -.00090236  00000+0 -30424-2 0   905
2 45786  53.1588  90.6214 0001406  91.9899  37.3276 15.30224853    12
STARLINK-1522           
1 46027C 20055A   26090.26437500  .00076280  00000+0  46203-2 0   906
2 46027  53.0649  29.1782 0002563 105.5396 247.1951 15.10056525    12
STARLINK-1523           
1 46028C 20055B   26090.26368056  .00016572  00000+0  55899-3 0   906
2 46028  53.1593  26.4954 0001427  88.9120 224.9212 15.30157377    12
STARLINK-1526           
1 46029C 20055C   26090.28590278 -.00002357  00000+0 -81603-4 0   903
2 46029  53.1549  26.3694 0001321  76.5940  52.7360 15.29326286    16
STARLINK-1555           
1 46032C 20055F   26090.26368056 -.00021412  00000+0 -72234-3 0   904
2 46032  53.1579  26.4909 0001237  85.6213 350.1762 15.30172362    10
STARLINK-1556           
1 46033C 20055G   26090.24145833 -.00062716  00000+0 -21707-2 0   909
2 46033  53.1568  26.5315 0001203  94.3378 353.5354 15.29362310    19
STARLINK-1557           
1 46034C 20055H   26090.24006944 -.00024956  00000+0 -86412-3 0   908
2 46034  53.1569  26.4391 0001371  71.5459  43.0768 15.29329839    16
STARLINK-1558           
1 46035C 20055J   26090.24354167 -.00009068  00000+0 -30590-3 0   905
2 46035  53.1595  26.5943 0001239  79.6556 279.9413 15.30168459    18
STARLINK-1560           
1 46036C 20055K   26090.31645833  .00011107  00000+0  38455-3 0   900
2 46036  53.1564  26.1244 0001422  93.1094 100.1172 15.29313411    12
STARLINK-1567           
1 46038C 20055M   26090.28104167  .01089100  00000+0  13245-1 0   905
2 46038  53.0898  24.5945 0001186  69.4402 286.6927 15.59376183    15
STARLINK-1569           
1 46039C 20055N   26090.27687500 -.00005711  00000+0 -19270-3 0   905
2 46039  53.1580  26.4344 0001200  82.4436  83.5252 15.30157580    10
STARLINK-1582           
1 46043C 20055S   26090.32131944  .00013588  00000+0  45843-3 0   906
2 46043  53.1597  26.2192 0001173  79.6461 296.4212 15.30152989    16
STARLINK-1591           
1 46045C 20055U   26090.28104167 -.00009156  00000+0 -30894-3 0   908
2 46045  53.1619  26.4156 0001412  95.8542 273.1139 15.30159200    14
STARLINK-1524           
1 46047C 20055W   26090.30604167  .00025064  00000+0  84580-3 0   903
2 46047  53.1600  13.4349 0001195  78.9843  99.8940 15.30139249    14
STARLINK-1527           
1 46048C 20055X   26090.23868056 -.00005281  00000+0 -17815-3 0   903
2 46048  53.1596  13.8466 0001064  76.5747  56.0707 15.30165349    11
STARLINK-1540           
1 46051C 20055AA  26090.36090278 -.00007362  00000+0 -24845-3 0   907
2 46051  53.1612  13.1834 0001434  65.8952 252.7774 15.30152509    19
STARLINK-1541           
1 46052C 20055AB  26090.25743056  .00006264  00000+0  21130-3 0   907
2 46052  53.1600  13.7057 0001275  75.9857  90.3570 15.30161536    19
STARLINK-1543           
1 46053C 20055AC  26090.29770833  .00032010  00000+0  10797-2 0   909
2 46053  53.1606  13.5442 0001232  91.3753 262.0895 15.30149773    19
